[
    {
        "Altitude(m)": 706476.4787425683,
        "Argument of Periapsis(deg)": 0.0034170363559881197,
        "Eccentricity": 0.0,
        "Inclination(deg)": 45.0,
        "Latitude(deg)": 41.428432589971834,
        "Longitude(deg)": -168.83730031434047,
        "Mean Anomaly(deg)": 68.91446499424421,
        "RAAN(deg)": 229.9967744175625,
        "Satellite Name": "Constellation 1 1016",
        "Satellite Number": 1016,
        "Semi-Major Axis(m)": 7083131.272910544,
        "Time(s)": 57
    },
    {
        "Altitude(m)": 706480.981048586,
        "Argument of Periapsis(deg)": 0.003476984362233526,
        "Eccentricity": 0.0,
        "Inclination(deg)": 45.0,
        "Latitude(deg)": 41.44902772668648,
        "Longitude(deg)": -168.76536237562442,
        "Mean Anomaly(deg)": 68.97516613449416,
        "RAAN(deg)": 229.99671782839695,
        "Satellite Name": "Constellation 1 1016",
        "Satellite Number": 1016,
        "Semi-Major Axis(m)": 7083131.272910544,
        "Time(s)": 58
    },
    {
        "Altitude(m)": 706485.4736043832,
        "Argument of Periapsis(deg)": 0.003536932368478932,
        "Eccentricity": 0.0,
        "Inclination(deg)": 45.0,
        "Latitude(deg)": 41.469572505963036,
        "Longitude(deg)": -168.6933765838443,
        "Mean Anomaly(deg)": 69.03586727474399,
        "RAAN(deg)": 229.9966612392314,
        "Satellite Name": "Constellation 1 1016",
        "Satellite Number": 1016,
        "Semi-Major Axis(m)": 7083131.272910544,
        "Time(s)": 59
    },
    {
        "Altitude(m)": 706489.9563830696,
        "Argument of Periapsis(deg)": 0.003596880374724337,
        "Eccentricity": 0.0,
        "Inclination(deg)": 45.0,
        "Latitude(deg)": 41.490066860338736,
        "Longitude(deg)": -168.62134265545083,
        "Mean Anomaly(deg)": 69.09656841499394,
        "RAAN(deg)": 229.99660465006585,
        "Satellite Name": "Constellation 1 1016",
        "Satellite Number": 1016,
        "Semi-Major Axis(m)": 7083131.272910544,
        "Time(s)": 60
    },
    {
        "Altitude(m)": 706494.4293578091,
        "Argument of Periapsis(deg)": 0.0036568283809697427,
        "Eccentricity": 0.0,
        "Inclination(deg)": 45.0,
        "Latitude(deg)": 41.51051072240695,
        "Longitude(deg)": -168.54926081171618,
        "Mean Anomaly(deg)": 69.15726955524381,
        "RAAN(deg)": 229.99654806090027,
        "Satellite Name": "Constellation 1 1016",
        "Satellite Number": 1016,
        "Semi-Major Axis(m)": 7083131.272910544,
        "Time(s)": 61
    },
    {
        "Altitude(m)": 706498.892501834,
        "Argument of Periapsis(deg)": 0.003716776387215149,
        "Eccentricity": 0.0,
        "Inclination(deg)": 45.0,
        "Latitude(deg)": 41.530904024816905,
        "Longitude(deg)": -168.47713110634572,
        "Mean Anomaly(deg)": 69.2179706954937,
        "RAAN(deg)": 229.99649147173466,
        "Satellite Name": "Constellation 1 1016",
        "Satellite Number": 1016,
        "Semi-Major Axis(m)": 7083131.272910544,
        "Time(s)": 62
    },
    {
        "Altitude(m)": 706503.3457884376,
        "Argument of Periapsis(deg)": 0.003776724393460554,
        "Eccentricity": 0.0,
        "Inclination(deg)": 45.0,
        "Latitude(deg)": 41.551246700274824,
        "Longitude(deg)": -168.40495359357655,
        "Mean Anomaly(deg)": 69.2786718357436,
        "RAAN(deg)": 229.9964348825691,
        "Satellite Name": "Constellation 1 1016",
        "Satellite Number": 1016,
        "Semi-Major Axis(m)": 7083131.272910544,
        "Time(s)": 63
    },
    {
        "Altitude(m)": 706507.7891909707,
        "Argument of Periapsis(deg)": 0.003836672399705959,
        "Eccentricity": 0.0,
        "Inclination(deg)": 45.0,
        "Latitude(deg)": 41.571538681544624,
        "Longitude(deg)": -168.33272832817798,
        "Mean Anomaly(deg)": 69.33937297599353,
        "RAAN(deg)": 229.99637829340355,
        "Satellite Name": "Constellation 1 1016",
        "Satellite Number": 1016,
        "Semi-Major Axis(m)": 7083131.272910544,
        "Time(s)": 64
    },
    {
        "Altitude(m)": 706512.2226828639,
        "Argument of Periapsis(deg)": 0.003896620405951365,
        "Eccentricity": 0.0,
        "Inclination(deg)": 45.0,
        "Latitude(deg)": 41.59177990144875,
        "Longitude(deg)": -168.2604553654527,
        "Mean Anomaly(deg)": 69.40007411624342,
        "RAAN(deg)": 229.996321704238,
        "Satellite Name": "Constellation 1 1016",
        "Satellite Number": 1016,
        "Semi-Major Axis(m)": 7083131.272910544,
        "Time(s)": 65
    },
    {
        "Altitude(m)": 706516.6462375941,
        "Argument of Periapsis(deg)": 0.003956568412196771,
        "Eccentricity": 0.0,
        "Inclination(deg)": 45.0,
        "Latitude(deg)": 41.61197029286906,
        "Longitude(deg)": -168.18813476123742,
        "Mean Anomaly(deg)": 69.4607752564933,
        "RAAN(deg)": 229.99626511507242,
        "Satellite Name": "Constellation 1 1016",
        "Satellite Number": 1016,
        "Semi-Major Axis(m)": 7083131.272910544,
        "Time(s)": 66
    },
    {
        "Altitude(m)": 706521.0598287054,
        "Argument of Periapsis(deg)": 0.004016516418442176,
        "Eccentricity": 0.0,
        "Inclination(deg)": 45.0,
        "Latitude(deg)": 41.63210978874786,
        "Longitude(deg)": -168.11576674000105,
        "Mean Anomaly(deg)": 69.52147639674324,
        "RAAN(deg)": 229.9962085259068,
        "Satellite Name": "Constellation 1 1016",
        "Satellite Number": 1016,
        "Semi-Major Axis(m)": 7083131.272910544,
        "Time(s)": 67
    },
    {
        "Altitude(m)": 706525.463429813,
        "Argument of Periapsis(deg)": 0.004076464424687581,
        "Eccentricity": 0.0,
        "Inclination(deg)": 45.0,
        "Latitude(deg)": 41.65219832208752,
        "Longitude(deg)": -168.04335102245673,
        "Mean Anomaly(deg)": 69.58217753699313,
        "RAAN(deg)": 229.99615193674126,
        "Satellite Name": "Constellation 1 1016",
        "Satellite Number": 1016,
        "Semi-Major Axis(m)": 7083131.272910544,
        "Time(s)": 68
    },
    {
        "Altitude(m)": 706529.8570145916,
        "Argument of Periapsis(deg)": 0.004136412430932987,
        "Eccentricity": 0.0,
        "Inclination(deg)": 45.0,
        "Latitude(deg)": 41.67223582595312,
        "Longitude(deg)": -167.97088783414574,
        "Mean Anomaly(deg)": 69.642878677243,
        "RAAN(deg)": 229.9960953475757,
        "Satellite Name": "Constellation 1 1016",
        "Satellite Number": 1016,
        "Semi-Major Axis(m)": 7083131.272910544,
        "Time(s)": 69
    },
    {
        "Altitude(m)": 706534.2405567787,
        "Argument of Periapsis(deg)": 0.004196360437178394,
        "Eccentricity": 0.0,
        "Inclination(deg)": 45.0,
        "Latitude(deg)": 41.69222223347206,
        "Longitude(deg)": -167.89837723304962,
        "Mean Anomaly(deg)": 69.70357981749291,
        "RAAN(deg)": 229.99603875841012,
        "Satellite Name": "Constellation 1 1016",
        "Satellite Number": 1016,
        "Semi-Major Axis(m)": 7083131.272910544,
        "Time(s)": 70
    },
    {
        "Altitude(m)": 706538.6140301714,
        "Argument of Periapsis(deg)": 0.004256308443423799,
        "Eccentricity": 0.0,
        "Inclination(deg)": 45.0,
        "Latitude(deg)": 41.71215747783521,
        "Longitude(deg)": -167.82581927768763,
        "Mean Anomaly(deg)": 69.76428095774284,
        "RAAN(deg)": 229.99598216924457,
        "Satellite Name": "Constellation 1 1016",
        "Satellite Number": 1016,
        "Semi-Major Axis(m)": 7083131.272910544,
        "Time(s)": 71
    },
    {
        "Altitude(m)": 706542.97740865,
        "Argument of Periapsis(deg)": 0.004316256449669204,
        "Eccentricity": 0.0,
        "Inclination(deg)": 45.0,
        "Latitude(deg)": 41.732041492297625,
        "Longitude(deg)": -167.75321402711901,
        "Mean Anomaly(deg)": 69.82498209799273,
        "RAAN(deg)": 229.99592558007896,
        "Satellite Name": "Constellation 1 1016",
        "Satellite Number": 1016,
        "Semi-Major Axis(m)": 7083131.272910544,
        "Time(s)": 72
    },
    {
        "Altitude(m)": 706547.330666131,
        "Argument of Periapsis(deg)": 0.00437620445591461,
        "Eccentricity": 0.0,
        "Inclination(deg)": 45.0,
        "Latitude(deg)": 41.751874210179466,
        "Longitude(deg)": -167.68056154094202,
        "Mean Anomaly(deg)": 69.8856832382426,
        "RAAN(deg)": 229.9958689909134,
        "Satellite Name": "Constellation 1 1016",
        "Satellite Number": 1016,
        "Semi-Major Axis(m)": 7083131.272910544,
        "Time(s)": 73
    },
    {
        "Altitude(m)": 706551.6737766186,
        "Argument of Periapsis(deg)": 0.004436152462160016,
        "Eccentricity": 0.0,
        "Inclination(deg)": 45.0,
        "Latitude(deg)": 41.77165556486713,
        "Longitude(deg)": -167.6078620473928,
        "Mean Anomaly(deg)": 69.94638437849255,
        "RAAN(deg)": 229.99581240174786,
        "Satellite Name": "Constellation 1 1016",
        "Satellite Number": 1016,
        "Semi-Major Axis(m)": 7083131.272910544,
        "Time(s)": 74
    },
    {
        "Altitude(m)": 706556.0067141693,
        "Argument of Periapsis(deg)": 0.0044961004684054215,
        "Eccentricity": 0.0,
        "Inclination(deg)": 45.0,
        "Latitude(deg)": 41.79138548981278,
        "Longitude(deg)": -167.53511527095776,
        "Mean Anomaly(deg)": 70.00708551874243,
        "RAAN(deg)": 229.99575581258227,
        "Satellite Name": "Constellation 1 1016",
        "Satellite Number": 1016,
        "Semi-Major Axis(m)": 7083131.272910544,
        "Time(s)": 75
    }
]